STARLINK-37655          
1 69142U 26110U   26155.91672454 -.01849819  00000+0 -12861-1 0  9999
2 69142  97.2847 352.1374 0001418  83.5788 305.5783 15.77392272  3682
STARLINK-37636          
1 69143U 26110V   26155.91000242  .00195992  00000+0  99763-3 0  9991
2 69143  97.2841 352.1353 0001442 133.9173 226.2215 15.80892874  3708
STARLINK-37638          
1 69144U 26110W   26155.90925027  .00195461  00000+0  99474-3 0  9998
2 69144  97.2839 352.1363 0001333 139.7077 220.4290 15.80898522  3708
STARLINK-37657          
1 69145U 26110X   26155.91672454 -.02453462  00000+0 -18073-1 0  9999
2 69145  97.2853 352.1403 0001429  88.9549 306.2106 15.76524189  3737
STARLINK-37639          
1 69146U 26110Y   26155.90774983  .00117814  00000+0  60622-3 0  9992
2 69146  97.2841 352.1388 0001373 119.6998 240.4407 15.80863454  3701
STARLINK-37661          
1 69147U 26110Z   26155.91672454 -.02498747  00000+0 -23516-1 0  9994
2 69147  97.2852 352.1312 0001432  91.0786 284.6464 15.70316340  3737
STARLINK-37395          
1 69148U 26111A   26155.91672454  .00123115  00000+0  62019-3 0  9999
2 69148  53.1583 213.1560 0001353  83.4529 129.1848 15.80811287  3575
STARLINK-37346          
1 69149U 26111B   26155.91672454  .00081559  00000+0  41405-3 0  9991
2 69149  53.1583 213.1434 0000907  72.0453 146.5436 15.80810813  3570
STARLINK-37332          
1 69150U 26111C   26155.91672454  .00124204  00000+0  62577-3 0  9991
2 69150  53.1585 213.1271 0000841  79.9604 146.3994 15.80804662  3576
STARLINK-37297          
1 69151U 26111D   26155.91672454  .00119252  00000+0  60130-3 0  9992
2 69151  53.1584 213.1409 0001186  67.8804 151.9387 15.80804640  3574
STARLINK-37317          
1 69152U 26111E   26155.91672454  .00067820  00000+0  34525-3 0  9995
2 69152  53.1582 213.1177 0001337 103.2155 127.7834 15.80822791  3572
STARLINK-37374          
1 69153U 26111F   26155.91672454  .00170419  00000+0  85339-3 0  9994
2 69153  53.1585 213.1002 0001029  87.6553 151.6003 15.80787000  3575
STARLINK-37235          
1 69154U 26111G   26155.91672454  .00051320  00000+0  26255-3 0  9996
2 69154  53.1585 213.1079 0001385  53.6974 181.9327 15.80827262  3575
STARLINK-37329          
1 69155U 26111H   26155.91672454  .00104043  00000+0  52595-3 0  9994
2 69155  53.1586 213.1228 0000921  75.7098 152.7217 15.80806130  3575
STARLINK-37345          
1 69156U 26111J   26155.91672454  .00157699  00000+0  79119-3 0  9991
2 69156  53.1585 213.1062 0001312  48.7146 187.9656 15.80785150  3575
STARLINK-37353          
1 69157U 26111K   26155.91672454  .00072526  00000+0  36859-3 0  9991
2 69157  53.1584 213.1033 0000824  77.3781 160.5225 15.80832884  3579
STARLINK-37363          
1 69158U 26111L   26155.91672454  .00262571  00000+0  13026-2 0  9993
2 69158  53.1635 213.0793 0000941  84.2619 165.3822 15.80725865  3572
STARLINK-37343          
1 69159U 26111M   26155.91672454  .00001437  00000+0  10823-4 0  9990
2 69159  53.1587 213.0701 0001196  81.3244 172.6470 15.80870297  3573
STARLINK-37328          
1 69160U 26111N   26155.91672454  .00231790  00000+0  11552-2 0  9997
2 69160  53.1585 213.0771 0000832  99.7883 150.6016 15.80710496  3574
STARLINK-37311          
1 69161U 26111P   26155.91672454  .00074720  00000+0  37979-3 0  9998
2 69161  53.1585 213.0641 0001290 116.6378 140.0506 15.80817711  3573
STARLINK-36286          
1 69162U 26111Q   26155.91672454  .00019758  00000+0  10358-3 0  9991
2 69162  53.1586 213.0555 0001212 116.3488 144.5786 15.80837669  3575
STARLINK-37196          
1 69163U 26111R   26155.91672454  .00073174  00000+0  42235-3 0  9993
2 69163  53.1588 213.0503 0000817 102.1538 161.0418 15.78018661  3576
STARLINK-36288          
1 69164U 26111S   26155.91672454  .00084632  00000+0  48761-3 0  9995
2 69164  53.1589 213.0405 0000971 111.3097 156.4981 15.78001409  3577
STARLINK-37445          
1 69165U 26111T   26155.91672454 -.00021191  00000+0 -10419-3 0  9998
2 69165  53.1585 213.0317 0001099 116.4513 155.9041 15.80851747  3579
STARLINK-37491          
1 69166U 26111U   26155.91672454  .00020079  00000+0  11928-3 0  9997
2 69166  53.1587 213.0314 0001214  86.8521 185.4462 15.78043530  3572
STARLINK-37474          
1 69167U 26111V   26155.91672454 -.00348545  00000+0 -20665-2 0  9998
2 69167  53.1589 213.0017 0001337  95.9491 190.7746 15.78265939  3571
STARLINK-37469          
1 69168U 26111W   26155.91672454  .00033240  00000+0  17166-3 0  9993
2 69168  53.1584 212.9901 0001116  82.9256 209.5136 15.80827477  3573
STARLINK-37515          
1 69169U 26111X   26155.91672454 -.00880524  00000+0 -54558-2 0  9996
2 69169  53.1588 212.9829 0000993  92.1825 203.6211 15.78685592  3570
STARLINK-37437          
1 69170U 26111Y   26155.91672454  .00090830  00000+0  46017-3 0  9991
2 69170  53.1583 212.9750 0001083  78.4769 220.9553 15.80812791  3572
STARLINK-37392          
1 69171U 26111Z   26155.91672454  .00130814  00000+0  65872-3 0  9999
2 69171  53.1586 212.9272 0001257 126.0385 196.3113 15.80793225  3570
