OBJECT_NAME,OBJECT_ID,EPOCH,MEAN_MOTION,ECCENTRICITY,INCLINATION,RA_OF_ASC_NODE,ARG_OF_PERICENTER,MEAN_ANOMALY,EPHEMERIS_TYPE,CLASSIFICATION_TYPE,NORAD_CAT_ID,ELEMENT_SET_NO,REV_AT_EPOCH,BSTAR,MEAN_MOTION_DOT,MEAN_MOTION_DDOT
STARLINK-37655,2026-110U,2026-06-04T22:00:05.000256,15.77392272,.00014188,97.2847,352.1374,83.5788,305.5783,0,U,69142,999,368,-.12860995E-1,-.1849819E-1,0
STARLINK-37636,2026-110V,2026-06-04T21:50:24.209088,15.80892874,.00014425,97.2841,352.1353,133.9173,226.2215,0,U,69143,999,370,.99762885E-3,.195992E-2,0
STARLINK-37638,2026-110W,2026-06-04T21:49:19.223328,15.80898522,.00013332,97.2839,352.1363,139.7077,220.4290,0,U,69144,999,370,.99473583E-3,.195461E-2,0
STARLINK-37657,2026-110X,2026-06-04T22:00:05.000256,15.76524189,.00014295,97.2853,352.1403,88.9549,306.2106,0,U,69145,999,373,-.18073194E-1,-.2453462E-1,0
STARLINK-37639,2026-110Y,2026-06-04T21:47:09.585312,15.80863454,.00013734,97.2841,352.1388,119.6998,240.4407,0,U,69146,999,370,.60622287E-3,.117814E-2,0
STARLINK-37661,2026-110Z,2026-06-04T22:00:05.000256,15.70316340,.00014323,97.2852,352.1312,91.0786,284.6464,0,U,69147,999,373,-.23516326E-1,-.2498747E-1,0
STARLINK-37395,2026-111A,2026-06-04T22:00:05.000256,15.80811287,.00013536,53.1583,213.1560,83.4529,129.1848,0,U,69148,999,357,.6201922E-3,.123115E-2,0
STARLINK-37346,2026-111B,2026-06-04T22:00:05.000256,15.80810813,.0000907,53.1583,213.1434,72.0453,146.5436,0,U,69149,999,357,.41404529E-3,.81559E-3,0
STARLINK-37332,2026-111C,2026-06-04T22:00:05.000256,15.80804662,.00008412,53.1585,213.1271,79.9604,146.3994,0,U,69150,999,357,.62576784E-3,.124204E-2,0
STARLINK-37297,2026-111D,2026-06-04T22:00:05.000256,15.80804640,.00011865,53.1584,213.1409,67.8804,151.9387,0,U,69151,999,357,.60129935E-3,.119252E-2,0
STARLINK-37317,2026-111E,2026-06-04T22:00:05.000256,15.80822791,.00013377,53.1582,213.1177,103.2155,127.7834,0,U,69152,999,357,.34524585E-3,.6782E-3,0
STARLINK-37374,2026-111F,2026-06-04T22:00:05.000256,15.80787000,.00010295,53.1585,213.1002,87.6553,151.6003,0,U,69153,999,357,.85339251E-3,.170419E-2,0
STARLINK-37235,2026-111G,2026-06-04T22:00:05.000256,15.80827262,.00013852,53.1585,213.1079,53.6974,181.9327,0,U,69154,999,357,.26255161E-3,.5132E-3,0
STARLINK-37329,2026-111H,2026-06-04T22:00:05.000256,15.80806130,.00009212,53.1586,213.1228,75.7098,152.7217,0,U,69155,999,357,.52595288E-3,.104043E-2,0
STARLINK-37345,2026-111J,2026-06-04T22:00:05.000256,15.80785150,.00013126,53.1585,213.1062,48.7146,187.9656,0,U,69156,999,357,.79119259E-3,.157699E-2,0
STARLINK-37353,2026-111K,2026-06-04T22:00:05.000256,15.80832884,.00008241,53.1584,213.1033,77.3781,160.5225,0,U,69157,999,357,.36858639E-3,.72526E-3,0
STARLINK-37363,2026-111L,2026-06-04T22:00:05.000256,15.80725865,.00009416,53.1635,213.0793,84.2619,165.3822,0,U,69158,999,357,.13025678E-2,.262571E-2,0
STARLINK-37343,2026-111M,2026-06-04T22:00:05.000256,15.80870297,.00011966,53.1587,213.0701,81.3244,172.6470,0,U,69159,999,357,.10823025E-4,.1437E-4,0
STARLINK-37328,2026-111N,2026-06-04T22:00:05.000256,15.80710496,.00008328,53.1585,213.0771,99.7883,150.6016,0,U,69160,999,357,.11552299E-2,.23179E-2,0
STARLINK-37311,2026-111P,2026-06-04T22:00:05.000256,15.80817711,.00012908,53.1585,213.0641,116.6378,140.0506,0,U,69161,999,357,.37979487E-3,.7472E-3,0
STARLINK-36286,2026-111Q,2026-06-04T22:00:05.000256,15.80837669,.00012121,53.1586,213.0555,116.3488,144.5786,0,U,69162,999,357,.10357873E-3,.19758E-3,0
STARLINK-37196,2026-111R,2026-06-04T22:00:05.000256,15.78018661,.00008179,53.1588,213.0503,102.1538,161.0418,0,U,69163,999,357,.42235413E-3,.73174E-3,0
STARLINK-36288,2026-111S,2026-06-04T22:00:05.000256,15.78001409,.00009711,53.1589,213.0405,111.3097,156.4981,0,U,69164,999,357,.48761371E-3,.84632E-3,0
STARLINK-37445,2026-111T,2026-06-04T22:00:05.000256,15.80851747,.00010994,53.1585,213.0317,116.4513,155.9041,0,U,69165,999,357,-.10418855E-3,-.21191E-3,0
STARLINK-37491,2026-111U,2026-06-04T22:00:05.000256,15.78043530,.00012145,53.1587,213.0314,86.8521,185.4462,0,U,69166,999,357,.11927538E-3,.20079E-3,0
STARLINK-37474,2026-111V,2026-06-04T22:00:05.000256,15.78265939,.00013377,53.1589,213.0017,95.9491,190.7746,0,U,69167,999,357,-.20664825E-2,-.348545E-2,0
STARLINK-37469,2026-111W,2026-06-04T22:00:05.000256,15.80827477,.00011169,53.1584,212.9901,82.9256,209.5136,0,U,69168,999,357,.17165632E-3,.3324E-3,0
STARLINK-37515,2026-111X,2026-06-04T22:00:05.000256,15.78685592,.00009931,53.1588,212.9829,92.1825,203.6211,0,U,69169,999,357,-.54557738E-2,-.880524E-2,0
STARLINK-37437,2026-111Y,2026-06-04T22:00:05.000256,15.80812791,.00010831,53.1583,212.9750,78.4769,220.9553,0,U,69170,999,357,.46016875E-3,.9083E-3,0
STARLINK-37392,2026-111Z,2026-06-04T22:00:05.000256,15.80793225,.00012572,53.1586,212.9272,126.0385,196.3113,0,U,69171,999,357,.65871875E-3,.130814E-2,0
